SL-16 R/B               
1 28353U 04021B   25215.51770356 -.00000073  00000+0 -12981-4 0  9993
2 28353  71.0022 330.3304 0005091 346.1557  13.9425 14.14550556 91984
CZ-4B R/B               
1 28415U 04035C   25215.08299898  .00006697  00000+0  26815-3 0  9992
2 28415  97.3778 247.2914 0035796  24.7662 335.5284 15.24785916146558
CZ-2C R/B               
1 28480U 04046B   25215.40904341  .00000160  00000+0  74322-4 0  9994
2 28480  98.1916 139.0252 0140952  80.4423 281.2654 14.26850514 77370
ARIANE 5 R/B            
1 28499U 04049H   25215.03931471  .00000602  00000+0  74177-4 0  9999
2 28499  98.2397  10.7439 0084744 340.4220  19.3745 14.84594823113369
CZ-2D R/B               
1 28738U 05024B   25215.51157507  .00016829  00000+0  35375-3 0  9996
2 28738  97.3688 220.2699 0008401 105.2548 254.9630 15.45360693105950
ALOS (DAICHI)           
1 28931U 06002A   25215.45275311  .00001552  00000+0  27399-3 0  9999
2 28931  98.0866 168.1023 0000714  89.9189 270.2098 14.68858251 41819
H-2A R/B                
1 28932U 06002B   25215.36626319  .00007221  00000+0  41463-3 0  9995
2 28932  98.2164 339.8808 0056927 261.8318  97.6450 15.11492060 61505
RESURS-DK 1             
1 29228U 06021A   25214.81565783  .00002163  00000+0  13487-3 0  9996
2 29228  69.9334  82.4910 0001788 102.2902 257.8463 15.11174256 54460
CZ-4B R/B               
1 29507U 06046C   25214.73291947  .00004281  00000+0  23519-3 0  9992
2 29507  97.5927 255.2273 0033890 306.0739  53.7355 15.14172699 26923
CZ-2C R/B               
1 31114U 07010B   25214.75825477  .00000113  00000+0  70958-4 0  9994
2 31114  98.3842 334.1599 0058540 209.8240 149.9597 14.20141880948652
COSMO-SKYMED 1          
1 31598U 07023A   25215.54648854  .00000783  00000+0  77684-4 0  9990
2 31598  97.8889  40.1817 0001410  86.3299 273.8082 14.94623767982368
GENESIS 2               
1 31789U 07028A   25214.86059483  .00215212  24522-4  60119-3 0  9994
2 31789  64.4670 221.0348 0024567 301.9036  57.9733 15.92923062  1579
COSMOS 2428             
1 31792U 07029A   25215.47978113  .00000187  00000+0  12638-3 0  9993
2 31792  70.9443 301.4038 0005226 233.1294 126.9349 14.12897110933350
SL-16 R/B               
1 31793U 07029B   25215.52678559 -.00000289  00000+0 -12499-3 0  9991
2 31793  70.9744 270.9633 0002735 278.2127 181.7020 14.14789597934608
KORONAS-FOTON           
1 33504U 09003A   25215.29439178  .00008320  00000+0  22493-3 0  9990
2 33504  82.4337 141.8502 0010606 211.4124 148.6488 15.37496827912253
CZ-2C R/B               
1 37731U 11030B   25215.49390219  .00001451  00000+0  19288-3 0  9999
2 37731  97.8179 172.7473 0052953 342.0139 132.1062 14.80331319757806
H-2A R/B                
1 38341U 12025E   25215.41637643  .00002418  00000+0  23301-3 0  9994
2 38341  98.4381 160.8400 0044968 307.3306  52.3817 14.93270905715702
SHIJIAN-16 (SJ-16)      
1 39358U 13057A   25215.48295894  .00000777  00000+0  80394-4 0  9996
2 39358  74.9697 237.8810 0018343 282.4510  77.4625 14.91476342639035
SL-4 R/B                
1 39679U 14021B   25214.71532658  .00008246  00000+0  22473-3 0  9993
2 39679  51.6095 319.8699 0111432  28.7134 331.9921 15.32369458622941
ALOS-2                  
1 39766U 14029A   25215.53529665  .00000968  00000+0  13647-3 0  9999
2 39766  97.9228 312.2598 0001491  98.7901 261.3480 14.79479864604642
YAOGAN-29               
1 41038U 15069A   25215.49937753  .00000440  00000+0  61341-4 0  9995
2 41038  98.0338 238.1397 0001613  33.9851 326.1465 14.82684968523544
ASTRO-H (HITOMI)        
1 41337U 16012A   25214.70631917  .00002953  00000+0  17994-3 0  9997
2 41337  31.0013 327.7746 0009974 293.4494  66.5095 15.08268744519122
HXMT (HUIYAN)           
1 42758U 17034A   25215.27617492  .00005447  00000+0  30065-3 0  9990
2 42758  43.0138 147.9544 0035526 295.6643  64.0536 15.14240371449411
CZ-2C R/B               
1 43521U 18054D   25214.60528736  .00032634  00000+0  45798-3 0  9997
2 43521  35.1392 341.6133 0031573 330.2848  29.6086 15.55101686394373
SAOCOM 1A               
1 43641U 18076A   25215.49884310  .00000422  00000+0  59584-4 0  9994
2 43641  97.8896  41.7957 0001385  90.7094 269.4277 14.82160584369044
H-2A R/B                
1 43682U 18084L   25214.42859604  .00014147  00000+0  45713-3 0  9995
2 43682  98.8808  21.7860 0031899  59.8362 300.6029 15.31754372372115
SAOCOM 1B               
1 46265U 20059A   25215.53012803  .00000410  00000+0  58045-4 0  9996
2 46265  97.8901  40.9311 0001411  91.3610 268.7765 14.82150542266449
CSS (TIANHE)            
1 48274U 21035A   25215.43732945  .00022548  00000+0  30199-3 0  9993
2 48274  41.4649  94.3148 0004840  53.3548 306.7734 15.57447100243528
COSMOS 2550             
1 48865U 21056A   25215.52842207  .00005091  00000+0  16049-3 0  9997
2 48865  67.1443 340.8932 0008438 270.4727  89.5460 15.33821036230019
CZ-2C R/B               
1 52794U 22058K   25215.46016452  .00014100  00000+0  32388-3 0  9999
2 52794  50.1941 348.8942 0055098  10.3550 349.8536 15.41341481176349
GSLV R/B                
1 54149U 22138AN  25215.10876559  .00001775  00000+0  15920-3 0  9994
2 54149  87.3762 239.5424 0020511 219.8568 140.1157 14.95018293151250
XRISM                   
1 57800U 23137A   25214.56978154  .00003418  00000+0  20819-3 0  9993
2 57800  31.0015 257.5603 0007870 358.7515   1.3102 15.08470202104647
ACS3                    
1 59588U 24077B   25215.49347309  .00011350  00000+0  10829-1 0  9999
2 59588  97.4299 199.7160 0073337  38.3820 322.2523 13.79445398 64010
